[{"spaceTrack":{"CCSDS_OMM_VERS":"2.0","COMMENT":"GENERATED VIA SPACE-TRACK.ORG API","CREATION_DATE":"2021-07-02T17:51:43","ORIGINATOR":"18 SPCS","OBJECT_NAME":"STARLINK-1023","OBJECT_ID":"2019-074R","CENTER_NAME":"EARTH","REF_FRAME":"TEME","TIME_SYSTEM":"UTC","MEAN_ELEMENT_THEORY":"SGP4","EPOCH":"2021-07-02T13:35:54.368736","MEAN_MOTION":15.06401288,"ECCENTRICITY":0.0001328,"INCLINATION":53.0567,"RA_OF_ASC_NODE":308.1447,"ARG_OF_PERICENTER":113.4373,"MEAN_ANOMALY":246.6756,"EPHEMERIS_TYPE":0,"CLASSIFICATION_TYPE":"U","NORAD_CAT_ID":44728,"ELEMENT_SET_NO":999,"REV_AT_EPOCH":9084,"BSTAR":0.00012063,"MEAN_MOTION_DOT":0.00001516,"MEAN_MOTION_DDOT":0,"SEMIMAJOR_AXIS":6925.345,"PERIOD":95.592,"APOAPSIS":548.129,"PERIAPSIS":546.29,"OBJECT_TYPE":"PAYLOAD","RCS_SIZE":"LARGE","COUNTRY_CODE":"US","LAUNCH_DATE":"2019-11-11","SITE":"AFETR","DECAY_DATE":null,"DECAYED":0,"FILE":3068555,"GP_ID":180165560,"TLE_LINE0":"0 STARLINK-1023","TLE_LINE1":"1 44728U 19074R   21183.56660149  .00001516  00000-0  12063-3 0  9996","TLE_LINE2":"2 44728  53.0567 308.1447 0001328 113.4373 246.6756 15.06401288 90848"},"version":"v1.0","launch":"5eb87d39ffd86e000604b37d","longitude":-95.80314464680903,"latitude":-39.27574190963016,"height_km":560.4782018120104,"velocity_kms":7.580748322745969,"id":"5eed7714096e590006985653"},{"spaceTrack":{"CCSDS_OMM_VERS":"2.0","COMMENT":"GENERATED VIA SPACE-TRACK.ORG API","CREATION_DATE":"2021-07-02T17:51:43","ORIGINATOR":"18 SPCS","OBJECT_NAME":"STARLINK-1020","OBJECT_ID":"2019-074N","CENTER_NAME":"EARTH","REF_FRAME":"TEME","TIME_SYSTEM":"UTC","MEAN_ELEMENT_THEORY":"SGP4","EPOCH":"2021-07-02T09:34:24.839904","MEAN_MOTION":15.06395037,"ECCENTRICITY":0.0001559,"INCLINATION":53.0545,"RA_OF_ASC_NODE":328.9097,"ARG_OF_PERICENTER":112.1375,"MEAN_ANOMALY":247.978,"EPHEMERIS_TYPE":0,"CLASSIFICATION_TYPE":"U","NORAD_CAT_ID":44725,"ELEMENT_SET_NO":999,"REV_AT_EPOCH":9053,"BSTAR":0.000042227,"MEAN_MOTION_DOT":0.00000347,"MEAN_MOTION_DDOT":0,"SEMIMAJOR_AXIS":6925.364,"PERIOD":95.592,"APOAPSIS":548.308,"PERIAPSIS":546.149,"OBJECT_TYPE":"PAYLOAD","RCS_SIZE":"LARGE","COUNTRY_CODE":"US","LAUNCH_DATE":"2019-11-11","SITE":"AFETR","DECAY_DATE":null,"DECAYED":0,"FILE":3068555,"GP_ID":180165310,"TLE_LINE0":"0 STARLINK-1020","TLE_LINE1":"1 44725U 19074N   21183.39889861  .00000347  00000-0  42227-4 0  9995","TLE_LINE2":"2 44725  53.0545 328.9097 0001559 112.1375 247.9780 15.06395037 90537"},"version":"v1.0","launch":"5eb87d39ffd86e000604b37d","longitude":114.94846651474359,"latitude":45.01473701605615,"height_km":551.2523869655715,"velocity_kms":7.592159725026131,"id":"5eed7714096e590006985654"},{"spaceTrack":{"CCSDS_OMM_VERS":"2.0","COMMENT":"GENERATED VIA SPACE-TRACK.ORG API","CREATION_DATE":"2021-07-02T17:51:43","ORIGINATOR":"18 SPCS","OBJECT_NAME":"STARLINK-1024","OBJECT_ID":"2019-074S","CENTER_NAME":"EARTH","REF_FRAME":"TEME","TIME_SYSTEM":"UTC","MEAN_ELEMENT_THEORY":"SGP4","EPOCH":"2021-07-02T12:16:00.309216","MEAN_MOTION":15.07125314,"ECCENTRICITY":0.0000947,"INCLINATION":53.0011,"RA_OF_ASC_NODE":326.9049,"ARG_OF_PERICENTER":106.3887,"MEAN_ANOMALY":253.7206,"EPHEMERIS_TYPE":0,"CLASSIFICATION_TYPE":"U","NORAD_CAT_ID":44729,"ELEMENT_SET_NO":999,"REV_AT_EPOCH":9056,"BSTAR":0.00021949,"MEAN_MOTION_DOT":0.00003052,"MEAN_MOTION_DDOT":0,"SEMIMAJOR_AXIS":6923.126,"PERIOD":95.546,"APOAPSIS":545.647,"PERIAPSIS":544.336,"OBJECT_TYPE":"PAYLOAD","RCS_SIZE":"LARGE","COUNTRY_CODE":"US","LAUNCH_DATE":"2019-11-11","SITE":"AFETR","DECAY_DATE":null,"DECAYED":0,"FILE":3068555,"GP_ID":180165810,"TLE_LINE0":"0 STARLINK-1024","TLE_LINE1":"1 44729U 19074S   21183.51111469  .00003052  00000-0  21949-3 0  9998","TLE_LINE2":"2 44729  53.0011 326.9049 0000947 106.3887 253.7206 15.07125314 90568"},"version":"v1.0","launch":"5eb87d39ffd86e000604b37d","longitude":-118.40949752982813,"latitude":4.533663733265069,"height_km":545.1191299769444,"velocity_kms":7.591253797942493,"id":"5eed7714096e590006985655"},{"spaceTrack":{"CCSDS_OMM_VERS":"2.0","COMMENT":"GENERATED VIA SPACE-TRACK.ORG API","CREATION_DATE":"2021-07-02T17:51:43","ORIGINATOR":"18 SPCS","OBJECT_NAME":"STARLINK-1021","OBJECT_ID":"2019-074P","CENTER_NAME":"EARTH","REF_FRAME":"TEME","TIME_SYSTEM":"UTC","MEAN_ELEMENT_THEORY":"SGP4","EPOCH":"2021-07-02T12:32:13.540416","MEAN_MOTION":15.06388951,"ECCENTRICITY":0.0001442,"INCLINATION":53.0577,"RA_OF_ASC_NODE":308.352,"ARG_OF_PERICENTER":126.2842,"MEAN_ANOMALY":233.828,"EPHEMERIS_TYPE":0,"CLASSIFICATION_TYPE":"U","NORAD_CAT_ID":44726,"ELEMENT_SET_NO":999,"REV_AT_EPOCH":9083,"BSTAR":0.000061989,"MEAN_MOTION_DOT":0.00000642,"MEAN_MOTION_DDOT":0,"SEMIMAJOR_AXIS":6925.382,"PERIOD":95.593,"APOAPSIS":548.246,"PERIAPSIS":546.249,"OBJECT_TYPE":"PAYLOAD","RCS_SIZE":"LARGE","COUNTRY_CODE":"US","LAUNCH_DATE":"2019-11-11","SITE":"AFETR","DECAY_DATE":null,"DECAYED":0,"FILE":3068555,"GP_ID":180166561,"TLE_LINE0":"0 STARLINK-1021","TLE_LINE1":"1 44726U 19074P   21183.52237894  .00000642  00000-0  61989-4 0  9998","TLE_LINE2":"2 44726  53.0577 308.3520 0001442 126.2842 233.8280 15.06388951 90831"},"version":"v1.0","launch":"5eb87d39ffd86e000604b37d","longitude":170.40954033677312,"latitude":47.977197007705165,"height_km":551.6508732433422,"velocity_kms":7.592402734373844,"id":"5eed7714096e590006985656"},{"spaceTrack":{"CCSDS_OMM_VERS":"2.0","COMMENT":"GENERATED VIA SPACE-TRACK.ORG API","CREATION_DATE":"2021-07-02T17:51:43","ORIGINATOR":"18 SPCS","OBJECT_NAME":"STARLINK-1039","OBJECT_ID":"2019-074AH","CENTER_NAME":"EARTH","REF_FRAME":"TEME","TIME_SYSTEM":"UTC","MEAN_ELEMENT_THEORY":"SGP4","EPOCH":"2021-07-02T11:44:26.980224","MEAN_MOTION":15.06397604,"ECCENTRICITY":0.0001637,"INCLINATION":53.0571,"RA_OF_ASC_NODE":348.4927,"ARG_OF_PERICENTER":107.8811,"MEAN_ANOMALY":252.2357,"EPHEMERIS_TYPE":0,"CLASSIFICATION_TYPE":"U","NORAD_CAT_ID":44744,"ELEMENT_SET_NO":999,"REV_AT_EPOCH":9027,"BSTAR":-0.000025569,"MEAN_MOTION_DOT":-0.00000662,"MEAN_MOTION_DDOT":0,"SEMIMAJOR_AXIS":6925.356,"PERIOD":95.592,"APOAPSIS":548.355,"PERIAPSIS":546.087,"OBJECT_TYPE":"PAYLOAD","RCS_SIZE":"LARGE","COUNTRY_CODE":"US","LAUNCH_DATE":"2019-11-11","SITE":"AFETR","DECAY_DATE":null,"DECAYED":0,"FILE":3068555,"GP_ID":180165562,"TLE_LINE0":"0 STARLINK-1039","TLE_LINE1":"1 44744U 19074AH  21183.48920116 -.00000662  00000-0 -25569-4 0  9997","TLE_LINE2":"2 44744  53.0571 348.4927 0001637 107.8811 252.2357 15.06397604 90271"},"version":"v1.0","launch":"5eb87d39ffd86e000604b37d","longitude":30.367873604065505,"latitude":-47.98726345238751,"height_km":564.77933271452,"velocity_kms":7.578009600064202,"id":"5eed7714096e590006985657"},{"spaceTrack":{"CCSDS_OMM_VERS":"2.0","COMMENT":"GENERATED VIA SPACE-TRACK.ORG API","CREATION_DATE":"2021-07-02T17:51:43","ORIGINATOR":"18 SPCS","OBJECT_NAME":"STARLINK-1022","OBJECT_ID":"2019-074Q","CENTER_NAME":"EARTH","REF_FRAME":"TEME","TIME_SYSTEM":"UTC","MEAN_ELEMENT_THEORY":"SGP4","EPOCH":"2021-07-02T11:59:00.905856","MEAN_MOTION":15.06396,"ECCENTRICITY":0.0001896,"INCLINATION":53.0561,"RA_OF_ASC_NODE":348.4477,"ARG_OF_PERICENTER":57.2758,"MEAN_ANOMALY":302.8414,"EPHEMERIS_TYPE":0,"CLASSIFICATION_TYPE":"U","NORAD_CAT_ID":44727,"ELEMENT_SET_NO":999,"REV_AT_EPOCH":9028,"BSTAR":0.000082403,"MEAN_MOTION_DOT":0.00000946,"MEAN_MOTION_DDOT":0,"SEMIMAJOR_AXIS":6925.361,"PERIOD":95.592,"APOAPSIS":548.539,"PERIAPSIS":545.913,"OBJECT_TYPE":"PAYLOAD","RCS_SIZE":"LARGE","COUNTRY_CODE":"US","LAUNCH_DATE":"2019-11-11","SITE":"AFETR","DECAY_DATE":null,"DECAYED":0,"FILE":3068555,"GP_ID":180166312,"TLE_LINE0":"0 STARLINK-1022","TLE_LINE1":"1 44727U 19074Q   21183.49931604  .00000946  00000-0  82403-4 0  9996","TLE_LINE2":"2 44727  53.0561 348.4477 0001896  57.2758 302.8414 15.06396000 90282"},"version":"v1.0","launch":"5eb87d39ffd86e000604b37d","longitude":-50.49954042847244,"latitude":-42.36566229472195,"height_km":562.6584755037347,"velocity_kms":7.579062020913565,"id":"5eed7714096e590006985658"},{"spaceTrack":{"CCSDS_OMM_VERS":"2.0","COMMENT":"GENERATED VIA SPACE-TRACK.ORG API","CREATION_DATE":"2021-07-02T17:51:43","ORIGINATOR":"18 SPCS","OBJECT_NAME":"STARLINK-1008","OBJECT_ID":"2019-074B","CENTER_NAME":"EARTH","REF_FRAME":"TEME","TIME_SYSTEM":"UTC","MEAN_ELEMENT_THEORY":"SGP4","EPOCH":"2021-07-02T13:14:40.707456","MEAN_MOTION":15.06395781,"ECCENTRICITY":0.0001268,"INCLINATION":53.0553,"RA_OF_ASC_NODE":308.2191,"ARG_OF_PERICENTER":123.6774,"MEAN_ANOMALY":236.4336,"EPHEMERIS_TYPE":0,"CLASSIFICATION_TYPE":"U","NORAD_CAT_ID":44714,"ELEMENT_SET_NO":999,"REV_AT_EPOCH":9084,"BSTAR":-0.00003017,"MEAN_MOTION_DOT":-0.00000731,"MEAN_MOTION_DDOT":0,"SEMIMAJOR_AXIS":6925.361,"PERIOD":95.592,"APOAPSIS":548.105,"PERIAPSIS":546.348,"OBJECT_TYPE":"PAYLOAD","RCS_SIZE":"LARGE","COUNTRY_CODE":"US","LAUNCH_DATE":"2019-11-11","SITE":"AFETR","DECAY_DATE":null,"DECAYED":0,"FILE":3068555,"GP_ID":180166060,"TLE_LINE0":"0 STARLINK-1008","TLE_LINE1":"1 44714U 19074B   21183.55186004 -.00000731  00000-0 -30170-4 0  9993","TLE_LINE2":"2 44714  53.0553 308.2191 0001268 123.6774 236.4336 15.06395781 90847"},"version":"v1.0","launch":"5eb87d39ffd86e000604b37d","longitude":12.722001745327338,"latitude":-36.624386606284816,"height_km":559.8589305766309,"velocity_kms":7.5808577327873055,"id":"5eed7714096e590006985659"}]